OBJECT_NAME,OBJECT_ID,EPOCH,MEAN_MOTION,ECCENTRICITY,INCLINATION,RA_OF_ASC_NODE,ARG_OF_PERICENTER,MEAN_ANOMALY,EPHEMERIS_TYPE,CLASSIFICATION_TYPE,NORAD_CAT_ID,ELEMENT_SET_NO,REV_AT_EPOCH,BSTAR,MEAN_MOTION_DOT,MEAN_MOTION_DDOT
ONEWEB-0667,2023-029AH,2026-06-25T06:50:35.601792,13.20772438,.00018331,87.9203,272.8174,100.3880,259.7460,0,U,55827,999,16221,.20887429E-3,.98E-6,0
ONEWEB-0669,2023-029AJ,2026-06-25T06:43:18.787584,13.20772749,.00020581,87.9193,272.8289,83.9947,276.1421,0,U,55828,999,16221,-.56678839E-4,-.1E-6,0
ONEWEB-0670,2023-029AK,2026-06-25T06:44:17.587968,13.14501775,.00015908,87.8958,288.1274,94.7451,265.3860,0,U,55829,999,16049,-.67084361E-4,-.12E-6,0
ONEWEB-0671,2023-029AL,2026-06-24T15:29:03.765408,13.19724643,.00016894,87.9179,303.4899,100.6640,259.4683,0,U,55830,999,15988,-.12915956E-3,-.39E-6,0
ONEWEB-0672,2023-029AM,2026-06-25T04:46:56.337024,13.20772706,.00022639,87.9195,272.8383,95.9538,264.1853,0,U,55831,999,16220,-.3185465E-4,0,0
ONEWEB-0673,2023-029AN,2026-06-24T14:56:03.574176,13.19726229,.00017939,87.9184,303.4866,99.4228,260.7107,0,U,55832,999,15988,-.33338082E-3,-.121E-5,0
ONEWEB-0674,2023-029AP,2026-06-24T13:32:08.205504,13.14504845,.00016221,87.8959,288.2467,92.0046,268.1270,0,U,55833,999,16038,-.20889654E-3,-.65E-6,0
ONEWEB-0675,2023-029AQ,2026-06-24T15:17:42.284544,13.19724919,.00021978,87.9178,303.4929,102.1892,257.9487,0,U,55834,999,15990,-.34812114E-4,-.1E-7,0
ONEWEB-0720,2023-029AR,2026-06-24T15:06:19.444608,13.19724515,.00017438,87.9176,303.4945,108.2713,251.8609,0,U,55835,999,15982,-.42923844E-4,-.4E-7,0
ONEWEB-0537,2023-043A,2026-06-25T04:10:57.656352,13.16594918,.00022873,87.9089,227.1856,95.5834,264.5558,0,U,56046,999,16001,-.28798455E-4,.2E-7,0
ONEWEB-0538,2023-043B,2026-06-25T04:01:50.244960,13.16595728,.00022266,87.9095,227.1898,102.6106,257.5274,0,U,56047,999,16002,.18743691E-3,.85E-6,0
ONEWEB-0546,2023-043C,2026-06-25T03:43:35.970816,13.16595100,.00027001,87.9093,227.1916,89.7559,270.3881,0,U,56048,999,16001,.99044942E-4,.51E-6,0
ONEWEB-0547,2023-043D,2026-06-25T04:42:35.983584,13.21826455,.00020505,87.9251,242.3809,103.4435,256.6928,0,U,56049,999,15928,.31067179E-4,.26E-6,0
ONEWEB-0548,2023-043E,2026-06-25T04:18:55.528704,13.16593249,.00018499,87.9088,227.1831,84.5783,275.5559,0,U,56050,999,16001,.77436036E-4,.42E-6,0
ONEWEB-0549,2023-043F,2026-06-25T04:34:07.686336,13.21826043,.00022428,87.9247,242.3882,106.8926,253.2454,0,U,56051,999,15928,.13777406E-3,.7E-6,0
ONEWEB-0550,2023-043G,2026-06-25T04:14:45.794688,13.21826221,.00018961,87.9249,242.3886,95.1113,265.0237,0,U,56052,999,15928,.98707496E-4,.54E-6,0
ONEWEB-0551,2023-043H,2026-06-25T05:12:54.711360,13.15549891,.00020914,87.9001,257.6266,110.1736,249.9620,0,U,56053,999,15745,.30570005E-3,.128E-5,0
ONEWEB-0552,2023-043J,2026-06-25T04:07:27.414048,13.21824823,.00017795,87.9247,242.3949,102.3792,257.7541,0,U,56054,999,15928,-.75778727E-4,-.18E-6,0
ONEWEB-0553,2023-043K,2026-06-25T03:52:43.006368,13.16595064,.00023633,87.9091,227.1908,89.4375,270.7027,0,U,56055,999,16002,-.61777123E-4,-.11E-6,0
ONEWEB-0554,2023-043L,2026-06-25T03:34:29.371584,13.16595419,.00017822,87.9090,227.2022,82.6457,277.4877,0,U,56056,999,16000,.40999194E-4,.29E-6,0
ONEWEB-0555,2023-043M,2026-06-25T04:29:10.669920,13.16592272,.00025833,87.9093,227.1834,89.1367,271.0060,0,U,56057,999,16001,-.2159275E-4,.5E-7,0
ONEWEB-0557,2023-043N,2026-06-25T04:49:42.662208,13.16595169,.00023455,87.9089,227.1902,63.8714,296.2658,0,U,56058,999,16001,.33132456E-3,.14E-5,0
ONEWEB-0558,2023-043P,2026-06-25T03:57:46.135584,13.21824447,.00022591,87.9252,242.3914,104.8939,255.2445,0,U,56059,999,15929,.9744641E-5,.17E-6,0
ONEWEB-0559,2023-043Q,2026-06-25T05:29:48.826176,13.21825594,.00020283,87.9252,242.3739,105.0141,255.1217,0,U,56060,999,15931,-.10179126E-3,-.29E-6,0
ONEWEB-0566,2023-043R,2026-06-25T05:20:08.232000,13.21827027,.00020257,87.9253,242.3733,107.9259,252.2096,0,U,56061,999,15929,.8645243E-5,.17E-6,0
ONEWEB-0568,2023-043S,2026-06-25T03:25:21.939456,13.16594616,.00023039,87.9092,227.1915,91.8873,268.2521,0,U,56062,999,16002,.1172079E-3,.58E-6,0
ONEWEB-0574,2023-043T,2026-06-25T05:10:27.683616,13.21824761,.00020257,87.9260,242.3784,92.9486,267.1880,0,U,56063,999,15933,.1341235E-3,.68E-6,0
ONEWEB-0575,2023-043U,2026-06-25T03:16:15.043008,13.16594594,.00021032,87.9092,227.1891,84.5221,275.6150,0,U,56064,999,16001,.22443177E-4,.21E-6,0
ONEWEB-0576,2023-043V,2026-06-25T04:38:19.026528,13.16594557,.00021251,87.9093,227.1860,90.7095,269.4279,0,U,56065,999,16001,.45669916E-4,.3E-6,0
ONEWEB-0577,2023-043W,2026-06-25T02:58:00.882048,13.16593917,.00019243,87.9093,227.1973,73.9196,286.2146,0,U,56066,999,16003,.2253884E-3,.99E-6,0
