[{"id":"55827","name":"ONEWEB-0667","tle1":"1 55827U 23029AH  26176.28513428  .00000098  00000+0  20887-3 0  9992","tle2":"2 55827  87.9203 272.8174 0001833 100.3880 259.7460 13.20772438162216"},{"id":"55828","name":"ONEWEB-0669","tle1":"1 55828U 23029AJ  26176.28007856 -.00000010  00000+0 -56679-4 0  9991","tle2":"2 55828  87.9193 272.8289 0002058  83.9947 276.1421 13.20772749162217"},{"id":"55829","name":"ONEWEB-0670","tle1":"1 55829U 23029AK  26176.28075912 -.00000012  00000+0 -67084-4 0  9994","tle2":"2 55829  87.8958 288.1274 0001590  94.7451 265.3860 13.14501775160497"},{"id":"55830","name":"ONEWEB-0671","tle1":"1 55830U 23029AL  26175.64518247 -.00000039  00000+0 -12916-3 0  9990","tle2":"2 55830  87.9179 303.4899 0001689 100.6640 259.4683 13.19724643159889"},{"id":"55831","name":"ONEWEB-0672","tle1":"1 55831U 23029AM  26176.19926316  .00000000  00000+0 -31855-4 0  9993","tle2":"2 55831  87.9195 272.8383 0002263  95.9538 264.1853 13.20772706162203"},{"id":"55832","name":"ONEWEB-0673","tle1":"1 55832U 23029AN  26175.62226359 -.00000121  00000+0 -33338-3 0  9993","tle2":"2 55832  87.9184 303.4866 0001793  99.4228 260.7107 13.19726229159882"},{"id":"55833","name":"ONEWEB-0674","tle1":"1 55833U 23029AP  26175.56398386 -.00000065  00000+0 -20890-3 0  9993","tle2":"2 55833  87.8959 288.2467 0001622  92.0046 268.1270 13.14504845160380"},{"id":"55834","name":"ONEWEB-0675","tle1":"1 55834U 23029AQ  26175.63729496 -.00000001  00000+0 -34812-4 0  9992","tle2":"2 55834  87.9178 303.4929 0002197 102.1892 257.9487 13.19724919159901"},{"id":"55835","name":"ONEWEB-0720","tle1":"1 55835U 23029AR  26175.62939172 -.00000004  00000+0 -42924-4 0  9992","tle2":"2 55835  87.9176 303.4945 0001743 108.2713 251.8609 13.19724515159825"},{"id":"56046","name":"ONEWEB-0537","tle1":"1 56046U 23043A   26176.17427843  .00000002  00000+0 -28798-4 0  9991","tle2":"2 56046  87.9089 227.1856 0002287  95.5834 264.5558 13.16594918160018"},{"id":"56047","name":"ONEWEB-0538","tle1":"1 56047U 23043B   26176.16794265  .00000085  00000+0  18744-3 0  9995","tle2":"2 56047  87.9095 227.1898 0002226 102.6106 257.5274 13.16595728160025"},{"id":"56048","name":"ONEWEB-0546","tle1":"1 56048U 23043C   26176.15527744  .00000051  00000+0  99045-4 0  9998","tle2":"2 56048  87.9093 227.1916 0002700  89.7559 270.3881 13.16595100160019"},{"id":"56049","name":"ONEWEB-0547","tle1":"1 56049U 23043D   26176.19624981  .00000026  00000+0  31067-4 0  9996","tle2":"2 56049  87.9251 242.3809 0002050 103.4435 256.6928 13.21826455159283"},{"id":"56050","name":"ONEWEB-0548","tle1":"1 56050U 23043E   26176.17980936  .00000042  00000+0  77436-4 0  9999","tle2":"2 56050  87.9088 227.1831 0001849  84.5783 275.5559 13.16593249160018"},{"id":"56051","name":"ONEWEB-0549","tle1":"1 56051U 23043F   26176.19036674  .00000070  00000+0  13777-3 0  9991","tle2":"2 56051  87.9247 242.3882 0002242 106.8926 253.2454 13.21826043159287"},{"id":"56052","name":"ONEWEB-0550","tle1":"1 56052U 23043G   26176.17691892  .00000054  00000+0  98707-4 0  9998","tle2":"2 56052  87.9249 242.3886 0001896  95.1113 265.0237 13.21826221159284"},{"id":"56053","name":"ONEWEB-0551","tle1":"1 56053U 23043H   26176.21729990  .00000128  00000+0  30570-3 0  9990","tle2":"2 56053  87.9001 257.6266 0002091 110.1736 249.9620 13.15549891157451"},{"id":"56054","name":"ONEWEB-0552","tle1":"1 56054U 23043J   26176.17184507 -.00000018  00000+0 -75779-4 0  9996","tle2":"2 56054  87.9247 242.3949 0001779 102.3792 257.7541 13.21824823159280"},{"id":"56055","name":"ONEWEB-0553","tle1":"1 56055U 23043K   26176.16160887 -.00000011  00000+0 -61777-4 0  9997","tle2":"2 56055  87.9091 227.1908 0002363  89.4375 270.7027 13.16595064160020"},{"id":"56056","name":"ONEWEB-0554","tle1":"1 56056U 23043L   26176.14895106  .00000029  00000+0  40999-4 0  9995","tle2":"2 56056  87.9090 227.2022 0001782  82.6457 277.4877 13.16595419160007"},{"id":"56057","name":"ONEWEB-0555","tle1":"1 56057U 23043M   26176.18692905  .00000005  00000+0 -21593-4 0  9996","tle2":"2 56057  87.9093 227.1834 0002583  89.1367 271.0060 13.16592272160012"},{"id":"56058","name":"ONEWEB-0557","tle1":"1 56058U 23043N   26176.20118822  .00000140  00000+0  33132-3 0  9991","tle2":"2 56058  87.9089 227.1902 0002345  63.8714 296.2658 13.16595169160015"},{"id":"56059","name":"ONEWEB-0558","tle1":"1 56059U 23043P   26176.16511731  .00000017  00000+0  97446-5 0  9996","tle2":"2 56059  87.9252 242.3914 0002259 104.8939 255.2445 13.21824447159296"},{"id":"56060","name":"ONEWEB-0559","tle1":"1 56060U 23043Q   26176.22903734 -.00000029  00000+0 -10179-3 0  9994","tle2":"2 56060  87.9252 242.3739 0002028 105.0141 255.1217 13.21825594159318"},{"id":"56061","name":"ONEWEB-0566","tle1":"1 56061U 23043R   26176.22231750  .00000017  00000+0  86452-5 0  9991","tle2":"2 56061  87.9253 242.3733 0002025 107.9259 252.2096 13.21827027159295"},{"id":"56062","name":"ONEWEB-0568","tle1":"1 56062U 23043S   26176.14261504  .00000058  00000+0  11721-3 0  9993","tle2":"2 56062  87.9092 227.1915 0002303  91.8873 268.2521 13.16594616160024"},{"id":"56063","name":"ONEWEB-0574","tle1":"1 56063U 23043T   26176.21559819  .00000068  00000+0  13412-3 0  9991","tle2":"2 56063  87.9260 242.3784 0002025  92.9486 267.1880 13.21824761159339"},{"id":"56064","name":"ONEWEB-0575","tle1":"1 56064U 23043U   26176.13628522  .00000021  00000+0  22443-4 0  9995","tle2":"2 56064  87.9092 227.1891 0002103  84.5221 275.6150 13.16594594160017"},{"id":"56065","name":"ONEWEB-0576","tle1":"1 56065U 23043V   26176.19327577  .00000030  00000+0  45670-4 0  9995","tle2":"2 56065  87.9093 227.1860 0002125  90.7095 269.4279 13.16594557160019"},{"id":"56066","name":"ONEWEB-0577","tle1":"1 56066U 23043W   26176.12362132  .00000099  00000+0  22539-3 0  9998","tle2":"2 56066  87.9093 227.1973 0001924  73.9196 286.2146 13.16593917160037"}]